satname,norad_id,inclination_deg,eccentricity,mean_motion_rev_per_day,perigee_km,apogee_km,l1,l2
STARLINK-1234,45190,53.0401,0.0005218,15.72816105,347.3417111352792,354.36408499289973,1 45190U 20012N   26148.63824748  .00084542  00000+0  61016-3 0  9996,2 45190  53.0401 291.0586 0005218 203.6526 156.4252 15.72816105348427
STARLINK-1269,45197,53.1565,0.000255,15.33955412,462.28021727809846,465.76971988207333,1 45197U 20012V   26148.82534569  .00051462  00000+0  15453-2 0  9991,2 45197  53.1565  26.6643 0002550  96.1904 263.9388 15.33955412347192
STARLINK-1154,45198,53.0434,2.89e-05,15.62810685,379.34724983340857,379.7378437112111,1 45198U 20012W   26148.81352817  .00053065  00000+0  58028-3 0  9992,2 45198  53.0434 343.8177 0000289  28.6946 331.4084 15.62810685347745
STARLINK-1199,45201,53.1582,0.0002159,15.33899374,462.71435211490734,465.66886960907686,1 45201U 20012Z   26148.79617802  .00060359  00000+0  18117-2 0  9990,2 45201  53.1582  11.0658 0002159 159.8499 200.2588 15.33899374347439
STARLINK-1209,45206,53.039,0.0008407,15.64697155,368.43326376152527,379.7864916617091,1 45206U 20012AE  26148.85262568  .00071342  00000+0  71982-3 0  9991,2 45206  53.0390 303.9871 0008407 196.0918 163.9830 15.64697155347411
STARLINK-1231,45212,53.0412,0.0003677,15.27058127,482.0887836783695,487.1356494522315,1 45212U 20012AL  26148.79961405  .00039414  00000+0  14701-2 0  9996,2 45212  53.0412   5.9707 0003677  60.9373 299.1993 15.27058127347442
STARLINK-1271,45217,53.1596,0.0001688,15.341005,462.4386780250561,464.7484462628354,1 45217U 20012AR  26148.79496189  .00048533  00000+0  14520-2 0  9994,2 45217  53.1596  11.2092 0001688 142.0935 218.0187 15.34100500347439
STARLINK-1191,45222,53.1562,0.0003627,15.37885177,449.8867043555956,454.8415498732047,1 45222U 20012AW  26148.28098425  .00060306  00000+0  15931-2 0  9994,2 45222  53.1562 346.9120 0003627 151.6588 208.4614 15.37885177347737
STARLINK-1212,45223,53.0404,0.0002793,15.65937532,368.65886987354315,372.4286829552484,1 45223U 20012AX  26148.81501603  .00066298  00000+0  63839-3 0  9998,2 45223  53.0404 319.8727 0002793 113.3532 246.7777 15.65937532348146
STARLINK-1215,45225,53.1584,0.0001471,15.34156377,462.421040796271,464.43382905302497,1 45225U 20012AZ  26148.79481763  .00064187  00000+0  19093-2 0  9998,2 45225  53.1584 345.4830 0001471 183.6103 176.4889 15.34156377347759
STARLINK-1221,45227,53.0652,0.0001761,15.44459155,431.7682663259884,434.1671374019852,1 45227U 20012BB  26148.56622627  .00020825  00000+0  45058-3 0  9993,2 45227  53.0652 250.3226 0001761 265.5508  94.5296 15.44459155349047
STARLINK-1222,45228,53.0543,0.0001048,15.54343577,403.3506671197465,404.77221591308717,1 45228U 20012BC  26148.66678920  .00045425  00000+0  68499-3 0  9999,2 45228  53.0543 317.9441 0001048  21.7917 338.3137 15.54343577348043
STARLINK-1226,45229,53.1573,0.0002507,15.42734984,436.3326987492492,439.7503306565213,1 45229U 20012BD  26148.81594610  .00069236  00000+0  15559-2 0  9994,2 45229  53.1573 342.0534 0002507 186.0409 174.0568 15.42734984347744
STARLINK-1227,45230,53.1538,0.000291,15.42837096,435.75734042298154,439.72418127979745,1 45230U 20012BE  26148.76174381  .00066141  00000+0  14822-2 0  9993,2 45230  53.1538 342.4283 0002910 181.9033 178.1963 15.42837096347851
STARLINK-1246,45235,53.1577,0.0002918,15.33970767,461.98277907840384,465.97583815611233,1 45235U 20012BK  26148.05013331  .00047232  00000+0  14193-2 0  9998,2 45235  53.1577  29.9147 0002918 144.4909 215.6288 15.33970767347130
STARLINK-1270,45237,53.0423,0.000166,15.60188426,385.9892958665041,388.23535864315363,1 45237U 20012BM  26148.66821142  .00109772  00000+0  13121-2 0  9992,2 45237  53.0423 321.5955 0001660 172.9497 187.1538 15.60188426348102
STARLINK-1279,45360,53.0368,0.0008398,15.72952479,344.81328053655307,356.1146387083345,1 45360U 20019A   26148.48907057  .00093203  00000+0  66684-3 0  9990,2 45360  53.0368  66.5840 0008398  78.3181 281.8778 15.72952479343170
STARLINK-1301,45361,53.0369,0.000577,15.75325276,339.82722678342816,347.5842332938928,1 45361U 20019B   26148.79937723  .00097964  00000+0  63288-3 0  9993,2 45361  53.0369  67.8490 0005770  99.5546 260.6125 15.75325276343193
STARLINK-1262,45366,53.1545,0.0004133,15.32926098,464.2583659607608,469.9166285301835,1 45366U 20019G   26148.40518683  .00045031  00000+0  13992-2 0  9990,2 45366  53.1545 154.6391 0004133  35.7445 324.3833 15.32926098341961
STARLINK-1273,45367,53.0442,0.0006233,15.55621844,396.12057957496563,404.57063599382946,1 45367U 20019H   26148.67457587  .00091923  00000+0  13072-2 0  9995,2 45367  53.0442 130.9010 0006233  25.1006 335.0306 15.55621844342300
STARLINK-1277,45369,53.0429,0.0006302,15.62088191,377.3660827078693,385.8860881007131,1 45369U 20019K   26148.35185132  .00106020  00000+0  11778-2 0  9992,2 45369  53.0429 127.0083 0006302  14.5121 345.6072 15.62088191342331
STARLINK-1281,45370,53.1562,0.0005028,15.33809542,461.0183116353837,467.89922594047675,1 45370U 20019L   26148.29283705  .00043703  00000+0  13211-2 0  9994,2 45370  53.1562 154.8581 0005028  35.2557 324.8777 15.33809542341957
STARLINK-1300,45374,53.1557,0.0004651,15.34239302,459.99901325759765,466.36280717768295,1 45374U 20019Q   26148.30803670  .00046529  00000+0  13864-2 0  9992,2 45374  53.1557 154.7247 0004651  46.8315 313.3076 15.34239302341951
STARLINK-1302,45375,53.0448,0.0004385,15.66141971,366.99742432063795,372.91550228795677,1 45375U 20019R   26148.62579527  .00065616  00000+0  62663-3 0  9999,2 45375  53.0448 122.0018 0004385  30.8241 329.3030 15.66141971342428
STARLINK-1304,45376,53.0416,0.000606,15.61346031,379.67029565436223,387.8657245265931,1 45376U 20019S   26148.66063367  .00058046  00000+0  67035-3 0  9991,2 45376  53.0416 122.7976 0006060  42.0706 318.0771 15.61346031342412
STARLINK-1305,45377,53.0377,0.0001595,15.70048436,357.6839152824641,359.8329849310485,1 45377U 20019T   26148.86166742  .00078726  00000+0  63940-3 0  9993,2 45377  53.0377 100.9950 0001595 148.7406 211.3706 15.70048436342745
STARLINK-1319,45379,53.038,0.0004537,15.75497292,340.16697342992575,346.26592955180877,1 45379U 20019V   26148.86576942  .00100247  00000+0  64275-3 0  9998,2 45379  53.0380  93.0939 0004537  57.6025 302.5432 15.75497292342858
STARLINK-1266,45383,53.0443,0.0001649,15.64737198,372.88125341857267,375.1081064466134,1 45383U 20019Z   26148.83337963 -.00005440  00000+0 -49428-4 0  9993,2 45383  53.0443 107.1432 0001649 101.3310 299.5751 15.64737198  5814
STARLINK-1267,45384,53.0443,0.0007236,15.63905642,371.50037800718746,381.2755265181013,1 45384U 20019AA  26148.27931058  .00110621  00000+0  11435-2 0  9998,2 45384  53.0443 101.0485 0007236  74.5976 285.5836 15.63905642342681
STARLINK-1272,45386,53.0404,0.0008298,15.68394807,357.8987545602822,369.0871636404054,1 45386U 20019AC  26148.83920123  .00075047  00000+0  65195-3 0  9998,2 45386  53.0404  77.4001 0008298  62.0881 298.0974 15.68394807343061
STARLINK-1274,45387,53.0208,0.0008691,15.59568984,383.02235736321836,394.7848273208274,1 45387U 20019AD  26148.23656725  .00102605  00000+0  12554-2 0  9998,2 45387  53.0208  78.9698 0008691  88.2316 271.9691 15.59568984342987
STARLINK-1280,45388,53.0378,0.0005303,15.76187707,337.6902528416149,344.8168384543296,1 45388U 20019AE  26148.81734731  .00103407  00000+0  64277-3 0  9998,2 45388  53.0378  85.7591 0005303  73.1295 287.0305 15.76187707342934
STARLINK-1283,45389,53.0403,0.0004216,15.69525509,357.4138387966086,363.0956507157871,1 45389U 20019AF  26148.10149222  .00070509  00000+0  58609-3 0  9994,2 45389  53.0403  80.2355 0004216  84.6401 275.5096 15.69525509342960
STARLINK-1284,45390,53.0408,0.0004917,15.68501604,359.8722281082937,366.50164606802537,1 45390U 20019AG  26148.30199093  .00066501  00000+0  57700-3 0  9997,2 45390  53.0408 103.0326 0004917  17.8778 342.2410 15.68501604342659
STARLINK-1297,45395,53.0409,0.000673,15.6695663,363.07748373366667,372.1572691243391,1 45395U 20019AM  26148.81593508  .00070068  00000+0  64646-3 0  9997,2 45395  53.0409  99.4093 0006730  27.1302 333.0063 15.66956630341939
STARLINK-1307,45397,53.0528,0.0002795,15.55760091,398.0495646078207,401.8385119082059,1 45397U 20019AP  26148.86033265  .00042641  00000+0  61110-3 0  9992,2 45397  53.0528 104.2482 0002795  63.9311 296.1987 15.55760091342516
STARLINK-1255,45399,53.0339,0.0005552,15.64608806,370.61507348759733,378.11305066692694,1 45399U 20019AR  26148.51039383  .00063358  00000+0  64336-3 0  9994,2 45399  53.0339  74.5074 0005552  83.0597 277.1048 15.64608806342889
STARLINK-1260,45404,53.1556,0.0005961,15.36567378,452.1949199568662,460.3428986819572,1 45404U 20019AW  26148.61538231  .00058289  00000+0  16071-2 0  9997,2 45404  53.1556 116.2693 0005961  49.7777 310.3747 15.36567378342234
STARLINK-1263,45405,53.1577,0.0004629,15.33886075,461.06382786066933,467.3984923032731,1 45405U 20019AX  26148.24159779  .00051445  00000+0  15479-2 0  9991,2 45405  53.1577 119.0712 0004629  63.2536 296.8940 15.33886075342165
STARLINK-1265,45406,53.1562,0.0005311,15.36942849,451.526617556824,458.78494114705063,1 45406U 20019AY  26148.61037329  .00067092  00000+0  18240-2 0  9993,2 45406  53.1562 116.3078 0005311  41.2269 318.9135 15.36942849342238
STARLINK-1278,45408,53.0396,0.0007093,15.67852066,360.2657543632895,369.8316375916029,1 45408U 20019BA  26148.59328720  .00067282  00000+0  59896-3 0  9994,2 45408  53.0396  99.5092 0007093  49.4489 310.7143 15.67852066342453
STARLINK-1296,45412,53.1551,0.0006294,15.37078517,450.4530649389035,459.0543077348648,1 45412U 20019BE  26148.32636566  .00033823  00000+0  92463-3 0  9991,2 45412  53.1551 117.3479 0006294  38.0961 322.0487 15.37078517342197
STARLINK-1309,45414,53.0609,0.0006769,15.67031098,362.8376050662355,371.96971801382824,1 45414U 20019BG  26148.86262287  .00065799  00000+0  60589-3 0  9998,2 45414  53.0609  92.0323 0006769  25.6343 334.5007 15.67031098342565
